{
  "norad_id": 67226,
  "name": "TJS-23",
  "history": [
    {
      "epoch": "2026-03-27T19:48:14.553216Z",
      "apogee_km": 35813.05856678742,
      "perigee_km": 35759.55947438758,
      "latitude_deg": -1.7917641362263145e-05,
      "longitude_deg": 175.42663285808297,
      "height_km": 35797.450328730614,
      "semi_major_axis_km": 42164.4460205875,
      "eccentricity": 0.00063441,
      "inclination_deg": 5.774,
      "raan_deg": 297.8874,
      "arg_perigee_deg": 115.9787,
      "mean_anomaly_deg": 243.9071,
      "mean_motion_rev_day": 1.00272805
    },
    {
      "epoch": "2026-03-28T19:44:11.868576Z",
      "apogee_km": 35813.004866066716,
      "perigee_km": 35759.48982945254,
      "latitude_deg": -1.1429441023411816e-05,
      "longitude_deg": 175.4318832037966,
      "height_km": 35797.40949218791,
      "semi_major_axis_km": 42164.38434775963,
      "eccentricity": 0.0006346,
      "inclination_deg": 5.7718,
      "raan_deg": 297.8821,
      "arg_perigee_deg": 116.0227,
      "mean_anomaly_deg": 243.8438,
      "mean_motion_rev_day": 1.00273025
    },
    {
      "epoch": "2026-03-28T19:44:12.011136Z",
      "apogee_km": 35813.14191087414,
      "perigee_km": 35759.342692747785,
      "latitude_deg": -1.692691311252675e-05,
      "longitude_deg": 175.43183485695008,
      "height_km": 35797.609048602484,
      "semi_major_axis_km": 42164.379301810965,
      "eccentricity": 0.00063797,
      "inclination_deg": 5.7718,
      "raan_deg": 297.8827,
      "arg_perigee_deg": 116.362,
      "mean_anomaly_deg": 243.5046,
      "mean_motion_rev_day": 1.00273043
    },
    {
      "epoch": "2026-03-29T19:40:09.121728Z",
      "apogee_km": 35813.21018507001,
      "perigee_km": 35759.17069644883,
      "latitude_deg": -1.7976203114585076e-05,
      "longitude_deg": 175.43418556859663,
      "height_km": 35797.694346866534,
      "semi_major_axis_km": 42164.32744075942,
      "eccentricity": 0.00064082,
      "inclination_deg": 5.7696,
      "raan_deg": 297.8778,
      "arg_perigee_deg": 116.5573,
      "mean_anomaly_deg": 243.2877,
      "mean_motion_rev_day": 1.00273228
    },
    {
      "epoch": "2026-03-30T19:36:05.503968Z",
      "apogee_km": 35813.16902771892,
      "perigee_km": 35759.055430258435,
      "latitude_deg": -3.965439825324441e-06,
      "longitude_deg": 175.43984988349305,
      "height_km": 35797.718138121636,
      "semi_major_axis_km": 42164.24922898868,
      "eccentricity": 0.0006417,
      "inclination_deg": 5.7674,
      "raan_deg": 297.8728,
      "arg_perigee_deg": 116.749,
      "mean_anomaly_deg": 243.0762,
      "mean_motion_rev_day": 1.00273507
    },
    {
      "epoch": "2026-03-31T19:32:04.052256Z",
      "apogee_km": 35813.20175149282,
      "perigee_km": 35758.91113601464,
      "latitude_deg": -9.76926882732823e-07,
      "longitude_deg": 175.44103833109477,
      "height_km": 35798.00563520135,
      "semi_major_axis_km": 42164.193443753735,
      "eccentricity": 0.0006438,
      "inclination_deg": 5.7655,
      "raan_deg": 297.8684,
      "arg_perigee_deg": 117.4542,
      "mean_anomaly_deg": 242.3563,
      "mean_motion_rev_day": 1.00273706
    },
    {
      "epoch": "2026-03-31T19:32:04.204320Z",
      "apogee_km": 35813.32036346168,
      "perigee_km": 35758.80205517703,
      "latitude_deg": -1.790333493176069e-05,
      "longitude_deg": 175.440818006266,
      "height_km": 35798.0554753222,
      "semi_major_axis_km": 42164.19820931936,
      "eccentricity": 0.0006465,
      "inclination_deg": 5.7651,
      "raan_deg": 297.869,
      "arg_perigee_deg": 117.4372,
      "mean_anomaly_deg": 242.3734,
      "mean_motion_rev_day": 1.00273689
    },
    {
      "epoch": "2026-04-01T19:28:03.878400Z",
      "apogee_km": 35813.66880086928,
      "perigee_km": 35758.29887738334,
      "latitude_deg": -3.6788175934152147e-07,
      "longitude_deg": 175.4441109156036,
      "height_km": 35798.570517380474,
      "semi_major_axis_km": 42164.12083912631,
      "eccentricity": 0.0006566,
      "inclination_deg": 5.7628,
      "raan_deg": 297.8646,
      "arg_perigee_deg": 118.3513,
      "mean_anomaly_deg": 241.4529,
      "mean_motion_rev_day": 1.00273965
    },
    {
      "epoch": "2026-04-02T19:24:04.641120Z",
      "apogee_km": 35813.34893346231,
      "perigee_km": 35758.46736901256,
      "latitude_deg": -1.7978558329617526e-06,
      "longitude_deg": 175.44961680292462,
      "height_km": 35798.129916056765,
      "semi_major_axis_km": 42164.045151237435,
      "eccentricity": 0.00065081,
      "inclination_deg": 5.7605,
      "raan_deg": 297.8594,
      "arg_perigee_deg": 117.7372,
      "mean_anomaly_deg": 242.0678,
      "mean_motion_rev_day": 1.00274235
    },
    {
      "epoch": "2026-04-02T19:24:05.071392Z",
      "apogee_km": 35813.45405252627,
      "perigee_km": 35758.37178099602,
      "latitude_deg": -4.3425579354436585e-07,
      "longitude_deg": 175.44833364263744,
      "height_km": 35798.28763084634,
      "semi_major_axis_km": 42164.04991676115,
      "eccentricity": 0.00065319,
      "inclination_deg": 5.7605,
      "raan_deg": 297.8599,
      "arg_perigee_deg": 117.9889,
      "mean_anomaly_deg": 241.8162,
      "mean_motion_rev_day": 1.00274218
    },
    {
      "epoch": "2026-04-03T19:20:08.143584Z",
      "apogee_km": 35813.55158136294,
      "perigee_km": 35758.1497881047,
      "latitude_deg": 8.616863046256172e-06,
      "longitude_deg": 175.45234905634825,
      "height_km": 35798.48891739309,
      "semi_major_axis_km": 42163.987684733824,
      "eccentricity": 0.00065698,
      "inclination_deg": 5.7581,
      "raan_deg": 297.8554,
      "arg_perigee_deg": 118.4149,
      "mean_anomaly_deg": 241.3986,
      "mean_motion_rev_day": 1.0027444
    },
    {
      "epoch": "2026-04-04T19:16:12.038304Z",
      "apogee_km": 35813.6484288607,
      "perigee_km": 35757.90773312363,
      "latitude_deg": 1.3341072586071439e-05,
      "longitude_deg": 175.45871914334433,
      "height_km": 35798.665210522755,
      "semi_major_axis_km": 42163.91508099217,
      "eccentricity": 0.000661,
      "inclination_deg": 5.7558,
      "raan_deg": 297.8509,
      "arg_perigee_deg": 118.7955,
      "mean_anomaly_deg": 241.0317,
      "mean_motion_rev_day": 1.00274699
    },
    {
      "epoch": "2026-04-04T19:16:12.238752Z",
      "apogee_km": 35813.63351456861,
      "perigee_km": 35757.93834549188,
      "latitude_deg": 1.8047889744678052e-05,
      "longitude_deg": 175.45792829881725,
      "height_km": 35798.657242674875,
      "semi_major_axis_km": 42163.92293003025,
      "eccentricity": 0.00066046,
      "inclination_deg": 5.7558,
      "raan_deg": 297.8509,
      "arg_perigee_deg": 118.784,
      "mean_anomaly_deg": 241.0432,
      "mean_motion_rev_day": 1.00274671
    },
    {
      "epoch": "2026-04-05T19:12:16.240608Z",
      "apogee_km": 35813.61862411802,
      "perigee_km": 35757.81139287661,
      "latitude_deg": 5.296358288233625e-06,
      "longitude_deg": 175.46665642142915,
      "height_km": 35798.63282208594,
      "semi_major_axis_km": 42163.85200849731,
      "eccentricity": 0.00066179,
      "inclination_deg": 5.7536,
      "raan_deg": 297.8458,
      "arg_perigee_deg": 118.8183,
      "mean_anomaly_deg": 241.0252,
      "mean_motion_rev_day": 1.00274924
    },
    {
      "epoch": "2026-04-06T19:08:21.039072Z",
      "apogee_km": 35813.867093514185,
      "perigee_km": 35757.44350665821,
      "latitude_deg": 1.5884775003915155e-05,
      "longitude_deg": 175.4740669356312,
      "height_km": 35799.05241718968,
      "semi_major_axis_km": 42163.7923000862,
      "eccentricity": 0.0006691,
      "inclination_deg": 5.7512,
      "raan_deg": 297.8415,
      "arg_perigee_deg": 119.5858,
      "mean_anomaly_deg": 240.2745,
      "mean_motion_rev_day": 1.00275137
    },
    {
      "epoch": "2026-04-07T19:04:24.249504Z",
      "apogee_km": 35813.95369551764,
      "perigee_km": 35757.19712224404,
      "latitude_deg": 9.394710727366698e-06,
      "longitude_deg": 175.4863319652613,
      "height_km": 35799.191360083794,
      "semi_major_axis_km": 42163.71240888084,
      "eccentricity": 0.00067305,
      "inclination_deg": 5.7488,
      "raan_deg": 297.8372,
      "arg_perigee_deg": 119.9029,
      "mean_anomaly_deg": 239.9716,
      "mean_motion_rev_day": 1.00275422
    },
    {
      "epoch": "2026-04-08T19:00:26.683200Z",
      "apogee_km": 35814.13977199207,
      "perigee_km": 35756.88153847626,
      "latitude_deg": -1.3833480077701799e-06,
      "longitude_deg": 175.49786698634958,
      "height_km": 35799.459794856746,
      "semi_major_axis_km": 42163.64765523416,
      "eccentricity": 0.000679,
      "inclination_deg": 5.7465,
      "raan_deg": 297.8329,
      "arg_perigee_deg": 120.3884,
      "mean_anomaly_deg": 239.4958,
      "mean_motion_rev_day": 1.00275653
    },
    {
      "epoch": "2026-04-09T18:56:09.359808Z",
      "apogee_km": 35813.694156684694,
      "perigee_km": 35756.0657451162,
      "latitude_deg": -2.342481570754502e-06,
      "longitude_deg": 175.58572769198636,
      "height_km": 35798.99020339139,
      "semi_major_axis_km": 42163.01695090045,
      "eccentricity": 0.0006834,
      "inclination_deg": 5.7443,
      "raan_deg": 297.828,
      "arg_perigee_deg": 120.5485,
      "mean_anomaly_deg": 239.3395,
      "mean_motion_rev_day": 1.00277903
    },
    {
      "epoch": "2026-04-12T18:44:24.980352Z",
      "apogee_km": 35804.43332944469,
      "perigee_km": 35771.446807354085,
      "latitude_deg": -7.640499910219314e-06,
      "longitude_deg": 175.53419932423364,
      "height_km": 35796.35580846125,
      "semi_major_axis_km": 42166.07706839939,
      "eccentricity": 0.00039115,
      "inclination_deg": 5.737,
      "raan_deg": 297.8193,
      "arg_perigee_deg": 122.8027,
      "mean_anomaly_deg": 237.0282,
      "mean_motion_rev_day": 1.00266987
    }
  ]
}